[
    {
        "Altitude(m)": 591817.8089479639,
        "Argument of Periapsis(deg)": -0.03013754771062987,
        "Eccentricity": 0.0,
        "Inclination(deg)": 97.0,
        "Latitude(deg)": -82.97395813306176,
        "Longitude(deg)": 69.10452331081488,
        "Mean Anomaly(deg)": -89.01550897441663,
        "RAAN(deg)": 90.0079294048247,
        "Satellite Name": "Starlink Shell 3 1794",
        "Satellite Number": 1794,
        "Semi-Major Axis(m)": 6938478.169268562,
        "Time(s)": 760
    },
    {
        "Altitude(m)": 591807.3795046558,
        "Argument of Periapsis(deg)": -0.030534094391032898,
        "Eccentricity": 0.0,
        "Inclination(deg)": 97.0,
        "Latitude(deg)": -82.86453995530479,
        "Longitude(deg)": 64.11173736728351,
        "Mean Anomaly(deg)": -88.39003277671164,
        "RAAN(deg)": 90.00803373909869,
        "Satellite Name": "Starlink Shell 3 1794",
        "Satellite Number": 1794,
        "Semi-Major Axis(m)": 6938478.169268562,
        "Time(s)": 770
    },
    {
        "Altitude(m)": 591791.8463009661,
        "Argument of Periapsis(deg)": -0.030930641071435925,
        "Eccentricity": 0.0,
        "Inclination(deg)": 97.0,
        "Latitude(deg)": -82.70418201166595,
        "Longitude(deg)": 59.301482214929656,
        "Mean Anomaly(deg)": -87.76455657900664,
        "RAAN(deg)": 90.0081380733727,
        "Satellite Name": "Starlink Shell 3 1794",
        "Satellite Number": 1794,
        "Semi-Major Axis(m)": 6938478.169268562,
        "Time(s)": 780
    },
    {
        "Altitude(m)": 591771.2156075224,
        "Argument of Periapsis(deg)": -0.031327187751838945,
        "Eccentricity": 0.0,
        "Inclination(deg)": 97.0,
        "Latitude(deg)": -82.49614744932208,
        "Longitude(deg)": 54.724540477008375,
        "Mean Anomaly(deg)": -87.13908038130158,
        "RAAN(deg)": 90.0082424076467,
        "Satellite Name": "Starlink Shell 3 1794",
        "Satellite Number": 1794,
        "Semi-Major Axis(m)": 6938478.169268562,
        "Time(s)": 790
    },
    {
        "Altitude(m)": 591745.49575983,
        "Argument of Periapsis(deg)": -0.031723734432241975,
        "Eccentricity": 0.0,
        "Inclination(deg)": 97.0,
        "Latitude(deg)": -82.24426941067911,
        "Longitude(deg)": 50.41548651257823,
        "Mean Anomaly(deg)": -86.5136041835965,
        "RAAN(deg)": 90.0083467419207,
        "Satellite Name": "Starlink Shell 3 1794",
        "Satellite Number": 1794,
        "Semi-Major Axis(m)": 6938478.169268562,
        "Time(s)": 800
    },
    {
        "Altitude(m)": 591714.6971547907,
        "Argument of Periapsis(deg)": -0.032120281112645,
        "Eccentricity": 0.0,
        "Inclination(deg)": 97.0,
        "Latitude(deg)": -81.9526607453054,
        "Longitude(deg)": 46.39333288075921,
        "Mean Anomaly(deg)": -85.8881279858915,
        "RAAN(deg)": 90.00845107619473,
        "Satellite Name": "Starlink Shell 3 1794",
        "Satellite Number": 1794,
        "Semi-Major Axis(m)": 6938478.169268562,
        "Time(s)": 810
    },
    {
        "Altitude(m)": 591678.8322463017,
        "Argument of Periapsis(deg)": -0.03251682779304802,
        "Eccentricity": 0.0,
        "Inclination(deg)": 97.0,
        "Latitude(deg)": -81.62546740968217,
        "Longitude(deg)": 42.66377281175363,
        "Mean Anomaly(deg)": -85.26265178818649,
        "RAAN(deg)": 90.00855541046873,
        "Satellite Name": "Starlink Shell 3 1794",
        "Satellite Number": 1794,
        "Semi-Major Axis(m)": 6938478.169268562,
        "Time(s)": 820
    },
    {
        "Altitude(m)": 591637.9155400278,
        "Argument of Periapsis(deg)": -0.032913374473451044,
        "Eccentricity": 0.0,
        "Inclination(deg)": 97.0,
        "Latitude(deg)": -81.26668424702983,
        "Longitude(deg)": 39.222166516661055,
        "Mean Anomaly(deg)": -84.63717559048139,
        "RAAN(deg)": 90.00865974474274,
        "Satellite Name": "Starlink Shell 3 1794",
        "Satellite Number": 1794,
        "Semi-Major Axis(m)": 6938478.169268562,
        "Time(s)": 830
    },
    {
        "Altitude(m)": 591591.9635872729,
        "Argument of Periapsis(deg)": -0.03330992115385407,
        "Eccentricity": 0.0,
        "Inclination(deg)": 97.0,
        "Latitude(deg)": -80.8800346419552,
        "Longitude(deg)": 36.056587679453465,
        "Mean Anomaly(deg)": -84.01169939277639,
        "RAAN(deg)": 90.00876407901674,
        "Satellite Name": "Starlink Shell 3 1794",
        "Satellite Number": 1794,
        "Semi-Major Axis(m)": 6938478.169268562,
        "Time(s)": 840
    },
    {
        "Altitude(m)": 591540.994978027,
        "Argument of Periapsis(deg)": -0.0337064678342571,
        "Eccentricity": 0.0,
        "Inclination(deg)": 97.0,
        "Latitude(deg)": -80.46890495087489,
        "Longitude(deg)": 33.150505558207634,
        "Mean Anomaly(deg)": -83.38622319507127,
        "RAAN(deg)": 90.00886841329077,
        "Satellite Name": "Starlink Shell 3 1794",
        "Satellite Number": 1794,
        "Semi-Major Axis(m)": 6938478.169268562,
        "Time(s)": 850
    },
    {
        "Altitude(m)": 591485.0303331136,
        "Argument of Periapsis(deg)": -0.03410301451466012,
        "Eccentricity": 0.0,
        "Inclination(deg)": 97.0,
        "Latitude(deg)": -80.03632037034774,
        "Longitude(deg)": 30.484918150871685,
        "Mean Anomaly(deg)": -82.76074699736625,
        "RAAN(deg)": 90.00897274756477,
        "Satellite Name": "Starlink Shell 3 1794",
        "Satellite Number": 1794,
        "Semi-Major Axis(m)": 6938478.169268562,
        "Time(s)": 860
    },
    {
        "Altitude(m)": 591424.0922955167,
        "Argument of Periapsis(deg)": -0.034499561195063144,
        "Eccentricity": 0.0,
        "Inclination(deg)": 97.0,
        "Latitude(deg)": -79.5849489865948,
        "Longitude(deg)": 28.039922528086755,
        "Mean Anomaly(deg)": -82.13527079966126,
        "RAAN(deg)": 90.00907708183877,
        "Satellite Name": "Starlink Shell 3 1794",
        "Satellite Number": 1794,
        "Semi-Major Axis(m)": 6938478.169268562,
        "Time(s)": 870
    },
    {
        "Altitude(m)": 591358.205520799,
        "Argument of Periapsis(deg)": -0.03489610787546617,
        "Eccentricity": 0.0,
        "Inclination(deg)": 97.0,
        "Latitude(deg)": -79.11712298570059,
        "Longitude(deg)": 25.795787396187265,
        "Mean Anomaly(deg)": -81.5097946019562,
        "RAAN(deg)": 90.0091814161128,
        "Satellite Name": "Starlink Shell 3 1794",
        "Satellite Number": 1794,
        "Semi-Major Axis(m)": 6938478.169268562,
        "Time(s)": 880
    },
    {
        "Altitude(m)": 591287.3966667239,
        "Argument of Periapsis(deg)": -0.0352926545558692,
        "Eccentricity": 0.0,
        "Inclination(deg)": 97.0,
        "Latitude(deg)": -78.63486885581929,
        "Longitude(deg)": 23.733634665762537,
        "Mean Anomaly(deg)": -80.88431840425113,
        "RAAN(deg)": 90.0092857503868,
        "Satellite Name": "Starlink Shell 3 1794",
        "Satellite Number": 1794,
        "Semi-Major Axis(m)": 6938478.169268562,
        "Time(s)": 890
    },
    {
        "Altitude(m)": 591211.6943819881,
        "Argument of Periapsis(deg)": -0.035689201236272214,
        "Eccentricity": 0.0,
        "Inclination(deg)": 97.0,
        "Latitude(deg)": -78.13994103720393,
        "Longitude(deg)": 21.835830859652198,
        "Mean Anomaly(deg)": -80.25884220654608,
        "RAAN(deg)": 90.00939008466081,
        "Satellite Name": "Starlink Shell 3 1794",
        "Satellite Number": 1794,
        "Semi-Major Axis(m)": 6938478.169268562,
        "Time(s)": 900
    },
    {
        "Altitude(m)": 591131.1292941301,
        "Argument of Periapsis(deg)": -0.036085747916675244,
        "Eccentricity": 0.0,
        "Inclination(deg)": 97.0,
        "Latitude(deg)": -77.63385555391963,
        "Longitude(deg)": 20.086174363257136,
        "Mean Anomaly(deg)": -79.63336600884104,
        "RAAN(deg)": 90.0094944189348,
        "Satellite Name": "Starlink Shell 3 1794",
        "Satellite Number": 1794,
        "Semi-Major Axis(m)": 6938478.169268562,
        "Time(s)": 910
    },
    {
        "Altitude(m)": 591045.7339965802,
        "Argument of Periapsis(deg)": -0.03648229459707827,
        "Eccentricity": 0.0,
        "Inclination(deg)": 97.0,
        "Latitude(deg)": -77.11792165375725,
        "Longitude(deg)": 18.469949772516255,
        "Mean Anomaly(deg)": -79.00788981113602,
        "RAAN(deg)": 90.0095987532088,
        "Satellite Name": "Starlink Shell 3 1794",
        "Satellite Number": 1794,
        "Semi-Major Axis(m)": 6938478.169268562,
        "Time(s)": 920
    },
    {
        "Altitude(m)": 590955.5430349002,
        "Argument of Periapsis(deg)": -0.0368788412774813,
        "Eccentricity": 0.0,
        "Inclination(deg)": 97.0,
        "Latitude(deg)": -76.59327048163418,
        "Longitude(deg)": 16.973897874037455,
        "Mean Anomaly(deg)": -78.38241361343096,
        "RAAN(deg)": 90.00970308748283,
        "Satellite Name": "Starlink Shell 3 1794",
        "Satellite Number": 1794,
        "Semi-Major Axis(m)": 6938478.169268562,
        "Time(s)": 930
    },
    {
        "Altitude(m)": 590860.592892146,
        "Argument of Periapsis(deg)": -0.037275387957884314,
        "Eccentricity": 0.0,
        "Inclination(deg)": 97.0,
        "Latitude(deg)": -76.06088043905116,
        "Longitude(deg)": 15.586134804806536,
        "Mean Anomaly(deg)": -77.7569374157259,
        "RAAN(deg)": 90.00980742175683,
        "Satellite Name": "Starlink Shell 3 1794",
        "Satellite Number": 1794,
        "Semi-Major Axis(m)": 6938478.169268562,
        "Time(s)": 940
    }
]